INTELSAT 10 (IS-10)     
1 26766U 01019A   26013.80400333 -.00000158  00000+0  00000+0 0  9994
2 26766   8.7056  60.8319 0008160 241.9460 100.5113  0.99078606 44041
INTELSAT 902 (IS-902)   
1 26900U 01039A   26014.50704376 -.00000270  00000+0  00000+0 0  9993
2 26900   5.7294  73.6789 0004667 222.0746 310.6421  1.00272080 89152
INTELSAT 904 (IS-904)   
1 27380U 02007A   26014.51025045 -.00000213  00000+0  00000+0 0  9999
2 27380   6.5361  71.0479 0003273 278.6841 276.4396  1.00271035 50227
DIRECTV 5 (TEMPO 1)     
1 27426U 02023A   26014.50867686 -.00000043  00000+0  00000+0 0  9993
2 27426   4.4852  77.2583 0003346 233.7958 235.9225  1.00272831 86580
INTELSAT 905 (IS-905)   
1 27438U 02027A   26014.44924679  .00000106  00000+0  00000+0 0  9998
2 27438   6.3671  71.6711 0003285 226.6758 200.0994  1.00273389 49826
GALAXY 3C (G-3C)        
1 27445U 02030A   26013.85635034 -.00000137  00000+0  00000+0 0  9993
2 27445   3.3429  80.1418 0000881  66.9270 179.6843  1.00271925 44940
INTELSAT 906 (IS-906)   
1 27513U 02041A   26014.23705380  .00000026  00000+0  00000+0 0  9992
2 27513   5.4118  74.8399 0005760 211.3983 336.9490  1.00272763 85481
GALAXY 13 (HORIZONS-1)  
1 27954U 03044A   26014.53283693  .00000151  00000+0  00000+0 0  9995
2 27954   1.0213  86.0493 0002268 202.7236 227.0355  1.00268731 45030
INTELSAT 10-02          
1 28358U 04022A   26014.58816431  .00000008  00000+0  00000+0 0  9999
2 28358   0.0134 343.7383 0000849 348.7503 352.3472  1.00270127 79011
XM-3 (RHYTHM)           
1 28626U 05008A   26014.50877711 -.00000200  00000+0  00000+0 0  9997
2 28626   0.2589  83.1783 0003287 281.0215 251.6083  0.98954412 41078
DIRECTV 8               
1 28659U 05019A   26014.54540013  .00000020  00000+0  00000+0 0  9990
2 28659   0.0145 357.6840 0003083 313.4454 240.1740  1.00272716 75537
GALAXY 28 (G-28)        
1 28702U 05022A   26014.57655089 -.00000266  00000+0  00000+0 0  9999
2 28702   2.9035  80.8934 0002718 185.6589 356.3651  1.00592853 50436
GALAXY 16 (G-16)        
1 29236U 06023A   26014.51424999 -.00000108  00000+0  00000+0 0  9997
2 29236   0.0344 150.7809 0002531 153.3638 255.9398  1.00271261 71431
DIRECTV 9S              
1 29494U 06043A   26014.56134292 -.00000096  00000+0  00000+0 0  9990
2 29494   2.0244  82.8459 0003148 226.6428 265.3984  1.00272011 49840
GALAXY 17 (G-17)        
1 31307U 07016B   26014.56112638 -.00000190  00000+0  00000+0 0  9992
2 31307   2.5825  81.8965 0004891 193.0548 316.0736  1.00271170 68264
DIRECTV 10              
1 31862U 07032A   26014.51154028 -.00000084  00000+0  00000+0 0  9992
2 31862   0.0278 136.3154 0000098  36.0953  22.9081  1.00271705 44053
INTELSAT 11 (IS-11)     
1 32253U 07044B   26014.60437108  .00000049  00000+0  00000+0 0  9993
2 32253   3.1652  80.5961 0007686 181.9053 150.3525  0.99047201 66923
HORIZONS-2              
1 32388U 07063B   26014.47637953 -.00000237  00000+0  00000+0 0  9998
2 32388   2.2059  82.5905 0004247 211.2281 277.8134  1.00272724 66275
DIRECTV 11              
1 32729U 08013A   26013.99808454 -.00000106  00000+0  00000+0 0  9990
2 32729   0.0435 218.6118 0000763 179.1770 335.7995  1.00269542 44044
GALAXY 18 (G-18)        
1 32951U 08024A   26014.54405149  .00000044  00000+0  00000+0 0  9995
2 32951   0.0161  50.8816 0002778 251.2639 244.7073  1.00273064 44312
INTELSAT 25 (IS-25)     
1 33153U 08034A   26014.08275838 -.00000208  00000+0  00000+0 0  9993
2 33153   2.3107  82.2781 0004721 212.0659 177.4807  1.00270325 64157
GALAXY 19 (G-19)        
1 33376U 08045A   26014.51385917 -.00000120  00000+0  00000+0 0  9993
2 33376   0.0593 252.9084 0002835  53.5881 255.4592  1.00271956 63360
FM-5                    
1 35493U 09034A   26014.56112626 -.00000181  00000+0  00000+0 0  9991
2 35493   0.0226 295.8449 0001211 225.8067  68.2107  1.00270421 45103
INTELSAT 14 (IS-14)     
1 36097U 09064A   26014.43675664 -.00000254  00000+0  00000+0 0  9998
2 36097   0.0126 352.5215 0002607 320.3882 273.2083  1.00269404 59061
INTELSAT 15 (IS-15)     
1 36106U 09067A   26014.60515108 -.00000166  00000+0  00000+0 0  9999
2 36106   0.0155  43.3066 0002290 272.6937 101.0649  1.00271715 39681
DIRECTV 12              
1 36131U 09075A   26013.92606410 -.00000084  00000+0  00000+0 0  9996
2 36131   0.0056  76.0245 0000433 303.7288 324.3069  1.00271054 45008
INTELSAT 16 (IS-16)     
1 36397U 10006A   26014.42438601 -.00000225  00000+0  00000+0 0  9994
2 36397   0.0150  11.6446 0001785 287.5252 251.2805  1.00270056 58119
XM-5                    
1 37185U 10053A   26014.54863848 -.00000004  00000+0  00000+0 0  9995
2 37185   0.0673 263.8650 0002492 248.6029  43.8402  1.00270412 55941
INTELSAT 17 (IS-17)     
1 37238U 10065B   26014.60142439  .00000000  00000+0  00000+0 0  9995
2 37238   0.0347  94.2591 0002656 216.9311  85.3794  1.00271841 51704
INTELSAT 28 (IS-28)     
1 37392U 11016A   26014.43935665 -.00000207  00000+0  00000+0 0  9995
2 37392   1.4087  84.6775 0003709 209.4039 306.2870  1.00271718 51749
INTELSAT 18 (IS-18)     
1 37834U 11056A   26014.48130359  .00000072  00000+0  00000+0 0  9991
2 37834   0.0233 293.8714 0001716  12.6289 160.7045  1.00271802 52272
INTELSAT 22 (IS-22)     
1 38098U 12011A   26014.28636406 -.00000039  00000+0  00000+0 0  9992
2 38098   0.0132  38.6712 0001751 254.1390 356.1253  1.00271736  5648
INTELSAT 19 (IS-19)     
1 38356U 12030A   26014.57266879  .00000000  00000+0  00000+0 0  9992
2 38356   0.0264  48.7507 0002863 256.3855 181.0653  1.00271211 48914
INTELSAT 20 (IS-20)     
1 38740U 12043A   26013.95995097 -.00000005  00000+0  00000+0 0  9991
2 38740   0.0185  78.9182 0001930  91.6551 356.9241  1.00269202 49200
INTELSAT 21 (IS-21)     
1 38749U 12045A   26014.63813698 -.00000266  00000+0  00000+0 0  9993
2 38749   0.0242 292.7904 0001527 359.8311 353.1984  1.00271406 48982
INTELSAT 23 (IS-23)     
1 38867U 12057A   26014.44304351 -.00000266  00000+0  00000+0 0  9997
2 38867   0.0391 252.6156 0002151  62.3903 265.3777  1.00263412 48419
FM-6                    
1 39360U 13058A   26014.21619652  .00000002  00000+0  00000+0 0  9993
2 39360   0.0304  89.7707 0002408  93.3785 252.1822  1.00271402 44521
INTELSAT 30 (IS-30)     
1 40271U 14062A   26014.51542029 -.00000132  00000+0  00000+0 0  9993
2 40271   0.0151  48.1478 0001578  45.1916 111.1266  1.00270805  5255
DIRECTV 14              
1 40333U 14078B   26013.28488399  .00000000  00000+0  00000+0 0  9994
2 40333   0.0272  43.7181 0000244  57.3078  15.0785  1.00269673 40497
DIRECTV 15              
1 40663U 15026A   26014.55281218 -.00000084  00000+0  00000+0 0  9999
2 40663   0.0161  53.6663 0000483  30.9610 125.5075  1.00278167 38921
SKY MEXICO-1            
1 40664U 15026B   26014.57256420 -.00000215  00000+0  00000+0 0  9995
2 40664   0.0141 340.2266 0002412 336.1653 284.9920  1.00270875 38912
INTELSAT 34 (IS-34)     
1 40874U 15039A   26014.50600376 -.00000266  00000+0  00000+0 0  9994
2 40874   0.0154 321.1870 0000589 207.8419  71.5802  1.00270418 38085
INTELSAT 31 (IS-31)     
1 41581U 16035A   26013.85635034 -.00000131  00000+0  00000+0 0  9994
2 41581   0.0220 276.5388 0001918 293.0764 116.9222  1.00270676 35138
INTELSAT 36 (IS-36)     
1 41747U 16053A   26014.57802875 -.00000005  00000+0  00000+0 0  9997
2 41747   0.0113  32.5839 0001149 297.4005  60.6285  1.00271472 34404
INTELSAT 32E (IS-32E)   
1 41945U 17007B   26012.51133295 -.00000251  00000+0  00000+0 0  9995
2 41945   0.0198  75.6365 0000431 334.0804 203.1795  1.00270234 32668
INTELSAT 35E (IS-35E)   
1 42818U 17041A   26014.43883666  .00000000  00000+0  00000+0 0  9991
2 42818   0.0222  47.6103 0001904 257.7510 292.0532  1.00269771 31272
INTELSAT 37E (IS-37E)   
1 42950U 17059A   26014.44204334  .00000000  00000+0  00000+0 0  9997
2 42950   0.0216  43.8402 0002659 238.3169 332.8935  1.00270611 30527
AZERSPACE 2 (IS-38)     
1 43632U 18074A   26014.59726436  .00000156  00000+0  00000+0 0  9993
2 43632   0.0183  32.9377 0001275 275.2250  66.0107  1.00271877 26901
HORIZONS-3E             
1 43633U 18074B   26014.53308632 -.00000012  00000+0  00000+0 0  9994
2 43633   0.0511 217.2757 0000508 169.2431  88.3909  1.00269190 26809
AT&T T-16               
1 44333U 19034A   26014.54801402 -.00000096  00000+0  00000+0 0  9995
2 44333   0.0240  77.3895 0001082  70.7761  62.2505  1.00270517 24091
INTELSAT 39 (IS-39)     
1 44476U 19049B   26014.60055772  .00000000  00000+0  00000+0 0  9991
2 44476   0.0284  50.3003 0000987  80.3938 261.5131  1.00270129 23586
GALAXY 30 (G-30)        
1 46114U 20056C   26014.21703373  .00000056  00000+0  00000+0 0  9997
2 46114   0.0164  51.9196 0002041 252.9020 121.9745  1.00272736 19745
GALAXY 33 (G-33)        
1 54026U 22128A   26014.54016475  .00000098  00000+0  00000+0 0  9992
2 54026   0.0130  37.2085 0001894 257.1246 241.1312  1.00273772 12205
GALAXY 34 (G-34)        
1 54027U 22128B   26014.54166059  .00000000  00000+0  00000+0 0  9990
2 54027   0.0196  40.6273 0001458 252.8254 246.6342  1.00272406 12376
GALAXY 31 (G-31)        
1 54243U 22153A   26014.54491669  .00000032  00000+0  00000+0 0  9991
2 54243   0.0165 112.0954 0001447 199.3043 237.7750  1.00272988  5596
GALAXY 32 (G-32)        
1 54244U 22153B   26014.55866317 -.00000155  00000+0  00000+0 0  9996
2 54244   0.0083  45.2629 0002457 287.3162 251.5481  1.00272379 11602
GALAXY 35 (G-35)        
1 54741U 22170A   26014.55769146 -.00000143  00000+0  00000+0 0  9996
2 54741   0.0155  89.1006 0001984 209.6228 282.9456  1.00272901 11357
GALAXY 36 (G-36)        
1 54742U 22170B   26014.55955179 -.00000166  00000+0  00000+0 0  9995
2 54742   0.0019 320.5833 0001030  57.9270 207.9480  1.00271921 11232
GALAXY 37 (G-37)        
1 57493U 23112A   26014.54222469  .00000067  00000+0  00000+0 0  9995
2 57493   0.0148 352.4099 0001989 310.3165 239.4746  1.00272253  9007
